VDNH-80                 
1 44392U 19038G   21287.17906429  .00003026  00000-0  16904-3 0  9995
2 44392  97.6014 251.4547 0019219 262.8992 153.8691 15.14145833125555
D-STAR ONE (LIGHTSAT)   
1 44393U 19038H   21286.90922132  .00003703  00000-0  20651-3 0  9991
2 44393  97.6027 251.0546 0019420 264.1541  95.7476 15.14058469125704
AMGU-1 (AMURSAT)        
1 44394U 19038J   21286.85870369  .00003212  00000-0  17961-3 0  9995
2 44394  97.6002 250.9437 0019431 264.1295  95.7723 15.14064982125693
DOT-1                   
1 44399U 19038P   21286.89364960  .00002179  00000-0  12661-3 0  9992
2 44399  97.6052 250.3129 0022445 268.6072  91.2588 15.12988746125642
SOKRAT                  
1 44404U 19038U   21286.89166177  .00003289  00000-0  18464-3 0  9999
2 44404  97.6017 250.7193 0019625 266.3333  93.5654 15.13902788125682
LUCKY-7                 
1 44406U 19038W   21286.89258933  .00002266  00000-0  13040-3 0  9992
2 44406  97.6043 250.5657 0022267 260.5699  99.3015 15.13291764125650
D-STAR ONE (EXOCONNECT) 
1 44410U 19038AA  21287.05076936  .00005732  00000-0  31015-3 0  9990
2 44410  97.5984 251.2632 0019143 262.7060  97.1996 15.14900671125743
NARSSCUBE-2             
1 44415U 19022E   21286.55125975  .00002915  00000-0  10604-3 0  9991
2 44415  51.6406 229.4803 0010411 246.9283 113.0601 15.31561614122247
KRAKSAT                 
1 44427U 98067QM  21286.89727061  .00095985  00000-0  58742-3 0  9995
2 44427  51.6362  55.0051 0004469 321.7685 122.3664 15.76541484130099
NARSSCUBE-1             
1 44792U 98067QX  21286.70920411  .00103490  00000-0  57932-3 0  9995
2 44792  51.6351  66.5863 0004500 333.3695  26.7074 15.78513910108155
DUCHIFAT-3              
1 44854U 19089C   21286.71575665  .00001146  00000-0  97480-4 0  9997
2 44854  36.9665 121.1668 0008989   9.6205 350.4706 14.99689104100864
OPS-SAT                 
1 44878U 19092F   21286.94473963  .00003441  00000-0  17746-3 0  9996
2 44878  97.4778 108.7686 0014976 115.5392 244.7391 15.16928175100796
FLORIPASAT-1            
1 44885U 19093G   21287.15599025  .00000667  00000-0  89799-4 0  9992
2 44885  97.9191   5.4177 0013206 274.8420  85.1299 14.82411295 98356
HUSKYSAT-1 (HO-107)     
1 45119U 19071J   21286.94024215  .00007567  00000-0  21673-3 0  9991
2 45119  51.6399 181.9754 0010624   3.0982 357.0065 15.36887634 95387
G-SAT                   
1 45597U 98067RK  21286.74907321  .00037230  00000-0  41557-3 0  9992
2 45597  51.6378  94.0237 0002462  48.3846 311.7359 15.62405635 83078
QUETZAL-1               
1 45598U 98067RL  21286.45512781  .00062001  00000-0  58987-3 0  9992
2 45598  51.6372  92.0483 0000181 279.7347  80.3629 15.66233464 83001
BY70-2                  
1 45857U 20042B   21287.18461638  .00002328  00000-0  33421-3 0  9995
2 45857  97.9771   1.6853 0011305 183.6686 176.4482 14.77391861 69073
SALSAT                  
1 46495U 20068K   21286.92412077  .00000323  00000-0  28145-4 0  9997
2 46495  97.6995 223.7624 0018165  34.1568 326.0827 15.03581508 57139
NETSAT-4                
1 46504U 20068U   21286.53574385  .00000478  00000-0  40790-4 0  9997
2 46504  97.6986 222.4574 0015429  77.1593 283.1376 15.02265957 56963
NETSAT-3                
1 46505U 20068V   21286.54535071  .00000918  00000-0  74081-4 0  9997
2 46505  97.6987 222.4198 0014874  89.0872 271.2082 15.02246001 56974
NETSAT-1                
1 46506U 20068W   21286.55467224  .00001155  00000-0  92157-4 0  9991
2 46506  97.6969 222.3840 0012257 101.9552 258.3085 15.02216196 56971
NETSAT-2                
1 46507U 20068X   21286.36047186  .00001258  00000-0  10005-3 0  9997
2 46507  97.6960 222.1846 0010497 110.4325 249.8025 15.02189781 56893
BY70-3                  
1 46839U 20079N   21287.15423649  .00008033  00000-0  24069-3 0  9990
2 46839  97.2301 358.6609 0008436 132.9796 292.5204 15.34728593 52401
SPOC                    
1 46921U 98067RR  21286.20915736  .00026531  00000-0  36034-3 0  9990
2 46921  51.6399 107.7030 0002177 169.3111 190.7928 15.57420753 53186
BOBCAT-1                
1 46922U 98067RS  21286.94132180  .00035613  00000-0  42127-3 0  9997
2 46922  51.6409 100.6234 0002022 198.7437 161.3483 15.60923129 53317
NEUTRON-1               
1 46923U 98067RT  21286.49111895  .00025261  00000-0  34497-3 0  9997
2 46923  51.6402 106.5827 0002210 181.3779 178.7207 15.57302769 53267
1998-067RU              
1 46924U 98067RU  21286.47207830  .00116878  00000-0  92496-3 0  9999
2 46924  51.6348  95.1513 0003854 252.8592 107.1984 15.70461412 53381
DESCENT                 
1 46927U 98067RX  21286.49596139  .00022737  00000-0  31088-3 0  9997
2 46927  51.6401 106.6103 0002439 199.1711 160.9190 15.57335957 53162
UVSQ-SAT                
1 47438U 21006AB  21287.13914924  .00002198  00000-0  12629-3 0  9991
2 47438  97.4746 346.1775 0013826  53.2612 306.9887 15.13472965 40005
SOMP2B                  
1 47445U 21006AJ  21286.57149084  .00002779  00000-0  15950-3 0  9998
2 47445  97.4717 345.4609 0013573  58.8501 301.4060 15.13294706 39912
WARP-01                 
1 47924U 98067SA  21286.22459799  .00036270  00000-0  52037-3 0  9990
2 47924  51.6394 113.7748 0005090 189.0593 171.0307 15.55763266 33108
RSP-01                  
1 47925U 98067SB  21284.84803435  .00025478  00000-0  38281-3 0  9990
2 47925  51.6407 121.0943 0002142 128.3434 231.7750 15.54701692 32860
TAUSAT-1                
1 47926U 98067SC  21286.68344663  .00030624  00000-0  43437-3 0  9996
2 47926  51.6395 110.8427 0002751 133.2882 226.8340 15.56168237 33155
TSURU                   
1 47927U 98067SD  21286.93143584  .00020622  00000-0  31540-3 0  9993
2 47927  51.6410 111.0090 0002038 129.9969 230.1201 15.54348942 33187
STARS-EC                
1 47928U 98067SE  21286.93883165  .00031200  00000-0  44639-3 0  9997
2 47928  51.6405 110.2979 0005679 195.3082 164.7738 15.55911903 33176
MAYA-2                  
1 47929U 98067SF  21286.92748220  .00020361  00000-0  31134-3 0  9991
2 47929  51.6412 110.9813 0002095 126.1632 233.9552 15.54364449 33147
HIROGARI (OPUSAT-II)    
1 47930U 98067SG  21286.69370388  .00033742  00000-0  47115-3 0  9996
2 47930  51.6402 110.9229 0001707 139.9471 220.1647 15.56543996 33164
GUARANISAT-1            
1 47931U 98067SH  21285.51090036  .00029199  00000-0  44355-3 0  9990
2 47931  51.6410 118.0229 0002233 122.1887 237.9321 15.54322153 32963
DIY-1 (ARDUIQUBE)       
1 47963U 21022AH  21286.50828576  .00005896  00000-0  38615-3 0  9990
2 47963  97.5457 186.7242 0017306 261.8495  98.0770 15.07981931 29680
